HIMAWARI-8              
1 40267U 14060A   23256.03452444 -.00000283  00000+0  00000+0 0  9996
2 40267   0.0261 160.1173 0000917  65.1718 279.5687  1.00268989 32758
